O3B MPOWER F1           
1 54755U 22174A   24029.63900924 -.00000019  00000+0  00000+0 0  9991
2 54755   0.0603  10.9825 0006270 309.1676  77.4821  5.00118503 21846
